[{"OBJECT_NAME":"STARLINK-4465","OBJECT_ID":"2022-099AH","EPOCH":"2026-03-10T00:00:02.999808","MEAN_MOTION":15.8813169,"ECCENTRICITY":9.809e-5,"INCLINATION":97.6408,"RA_OF_ASC_NODE":215.7602,"ARG_OF_PERICENTER":79.9694,"MEAN_ANOMALY":110.339,"EPHEMERIS_TYPE":0,"CLASSIFICATION_TYPE":"U","NORAD_CAT_ID":53496,"ELEMENT_SET_NO":999,"REV_AT_EPOCH":595,"BSTAR":0.0017576958,"MEAN_MOTION_DOT":0.00504014,"MEAN_MOTION_DDOT":0},{"OBJECT_NAME":"STARLINK-31867","OBJECT_ID":"2024-120E","EPOCH":"2026-03-09T22:00:01.999584","MEAN_MOTION":15.87732023,"ECCENTRICITY":0.00118357,"INCLINATION":53.1391,"RA_OF_ASC_NODE":302.0052,"ARG_OF_PERICENTER":198.522,"MEAN_ANOMALY":210.6091,"EPHEMERIS_TYPE":0,"CLASSIFICATION_TYPE":"U","NORAD_CAT_ID":60139,"ELEMENT_SET_NO":999,"REV_AT_EPOCH":595,"BSTAR":0.0010848709,"MEAN_MOTION_DOT":0.00308367,"MEAN_MOTION_DDOT":0}]
